ONEWEB-0255             
1 48973U 21060G   25230.88027040 -.00000120  00000+0 -34639-3 0  9993
2 48973  87.9016 289.0513 0001831  88.7528 271.3813 13.16593274201170
ONEWEB-0256             
1 48974U 21060H   25230.90639470  .00000040  00000+0  69859-4 0  9995
2 48974  87.9014 289.0571 0002107  96.9566 263.1805 13.16593772199857
ONEWEB-0257             
1 48975U 21060J   25231.16684349  .00000090  00000+0  20220-3 0  9993
2 48975  87.9022 288.9727 0001983  89.6541 270.4817 13.16593932201138
ONEWEB-0258             
1 48976U 21060K   25231.16843404  .00000032  00000+0  49542-4 0  9998
2 48976  87.9019 288.9966 0001885  97.2646 262.8700 13.16594438201130
ONEWEB-0259             
1 48977U 21060L   25231.16209310  .00000075  00000+0  16160-3 0  9997
2 48977  87.9023 288.9829 0001816  92.0255 268.1084 13.16593791201176
ONEWEB-0260             
1 48978U 21060M   25230.62140855  .00000061  00000+0  12547-3 0  9996
2 48978  87.9015 289.1155 0002479  92.5475 267.5940 13.16593553199792
ONEWEB-0261             
1 48979U 21060N   25231.19928836 -.00000230  00000+0 -63420-3 0  9999
2 48979  87.9013 289.0018 0002050  83.0325 277.1039 13.16594269201225
ONEWEB-0262             
1 48980U 21060P   25231.17952084 -.00000015  00000+0 -72049-4 0  9990
2 48980  87.9022 288.9685 0001664  92.6494 267.4827 13.16595102201187
ONEWEB-0263             
1 48981U 21060Q   25230.90719117  .00000001  00000+0 -30941-4 0  9998
2 48981  87.9016 289.0462 0001801  82.5491 277.5845 13.16594968199811
ONEWEB-0264             
1 48982U 21060R   25230.86840835 -.00000887  00000+0 -23550-2 0  9995
2 48982  87.9016 289.0588 0002171  89.4119 270.7261 13.16600544199810
ONEWEB-0266             
1 48984U 21060T   25230.88977486 -.00000053  00000+0 -17349-3 0  9997
2 48984  87.9019 289.0304 0001852 100.0097 260.1243 13.16594306199801
ONEWEB-0267             
1 48985U 21060U   25231.20484190  .00000021  00000+0  20359-4 0  9999
2 48985  87.9019 288.9698 0002004  88.1305 272.0056 13.16594788201143
ONEWEB-0268             
1 48986U 21060V   25231.17317220  .00000054  00000+0  10660-3 0  9994
2 48986  87.9023 288.9820 0002110  94.4487 265.6885 13.16593984201409
ONEWEB-0269             
1 48987U 21060W   25230.62218380  .00000083  00000+0  18283-3 0  9992
2 48987  87.9018 289.1239 0002060  99.1262 261.0102 13.16592508199812
ONEWEB-0270             
1 48988U 21060X   25231.17159223 -.00000009  00000+0 -56088-4 0  9990
2 48988  87.9020 288.9843 0001728  83.2508 276.8819 13.16593558201236
ONEWEB-0271             
1 48989U 21060Y   25230.85494112  .00000025  00000+0  30866-4 0  9996
2 48989  87.9021 289.0313 0001956  87.1965 272.9390 13.16594581199880
ONEWEB-0272             
1 48990U 21060Z   25230.87711543 -.00000037  00000+0 -13040-3 0  9999
2 48990  87.9015 289.0561 0002106  88.8519 271.2853 13.16594948201136
