[{"OBJECT_NAME":"ONEWEB-0255","OBJECT_ID":"2021-060G","EPOCH":"2025-08-18T21:07:35.362560","MEAN_MOTION":13.16593274,"ECCENTRICITY":0.0001831,"INCLINATION":87.9016,"RA_OF_ASC_NODE":289.0513,"ARG_OF_PERICENTER":88.7528,"MEAN_ANOMALY":271.3813,"EPHEMERIS_TYPE":0,"CLASSIFICATION_TYPE":"U","NORAD_CAT_ID":48973,"ELEMENT_SET_NO":999,"REV_AT_EPOCH":20117,"BSTAR":-0.00034639,"MEAN_MOTION_DOT":-1.2e-6,"MEAN_MOTION_DDOT":0},{"OBJECT_NAME":"ONEWEB-0256","OBJECT_ID":"2021-060H","EPOCH":"2025-08-18T21:45:12.502080","MEAN_MOTION":13.16593772,"ECCENTRICITY":0.0002107,"INCLINATION":87.9014,"RA_OF_ASC_NODE":289.0571,"ARG_OF_PERICENTER":96.9566,"MEAN_ANOMALY":263.1805,"EPHEMERIS_TYPE":0,"CLASSIFICATION_TYPE":"U","NORAD_CAT_ID":48974,"ELEMENT_SET_NO":999,"REV_AT_EPOCH":19985,"BSTAR":6.9859e-5,"MEAN_MOTION_DOT":4.0e-7,"MEAN_MOTION_DDOT":0},{"OBJECT_NAME":"ONEWEB-0257","OBJECT_ID":"2021-060J","EPOCH":"2025-08-19T04:00:15.277536","MEAN_MOTION":13.16593932,"ECCENTRICITY":0.0001983,"INCLINATION":87.9022,"RA_OF_ASC_NODE":288.9727,"ARG_OF_PERICENTER":89.6541,"MEAN_ANOMALY":270.4817,"EPHEMERIS_TYPE":0,"CLASSIFICATION_TYPE":"U","NORAD_CAT_ID":48975,"ELEMENT_SET_NO":999,"REV_AT_EPOCH":20113,"BSTAR":0.0002022,"MEAN_MOTION_DOT":9.0e-7,"MEAN_MOTION_DDOT":0},{"OBJECT_NAME":"ONEWEB-0258","OBJECT_ID":"2021-060K","EPOCH":"2025-08-19T04:02:32.701056","MEAN_MOTION":13.16594438,"ECCENTRICITY":0.0001885,"INCLINATION":87.9019,"RA_OF_ASC_NODE":288.9966,"ARG_OF_PERICENTER":97.2646,"MEAN_ANOMALY":262.87,"EPHEMERIS_TYPE":0,"CLASSIFICATION_TYPE":"U","NORAD_CAT_ID":48976,"ELEMENT_SET_NO":999,"REV_AT_EPOCH":20113,"BSTAR":4.9542e-5,"MEAN_MOTION_DOT":3.2e-7,"MEAN_MOTION_DDOT":0},{"OBJECT_NAME":"ONEWEB-0259","OBJECT_ID":"2021-060L","EPOCH":"2025-08-19T03:53:24.843840","MEAN_MOTION":13.16593791,"ECCENTRICITY":0.0001816,"INCLINATION":87.9023,"RA_OF_ASC_NODE":288.9829,"ARG_OF_PERICENTER":92.0255,"MEAN_ANOMALY":268.1084,"EPHEMERIS_TYPE":0,"CLASSIFICATION_TYPE":"U","NORAD_CAT_ID":48977,"ELEMENT_SET_NO":999,"REV_AT_EPOCH":20117,"BSTAR":0.0001616,"MEAN_MOTION_DOT":7.5e-7,"MEAN_MOTION_DDOT":0},{"OBJECT_NAME":"ONEWEB-0260","OBJECT_ID":"2021-060M","EPOCH":"2025-08-18T14:54:49.698720","MEAN_MOTION":13.16593553,"ECCENTRICITY":0.0002479,"INCLINATION":87.9015,"RA_OF_ASC_NODE":289.1155,"ARG_OF_PERICENTER":92.5475,"MEAN_ANOMALY":267.594,"EPHEMERIS_TYPE":0,"CLASSIFICATION_TYPE":"U","NORAD_CAT_ID":48978,"ELEMENT_SET_NO":999,"REV_AT_EPOCH":19979,"BSTAR":0.00012547,"MEAN_MOTION_DOT":6.1e-7,"MEAN_MOTION_DDOT":0},{"OBJECT_NAME":"ONEWEB-0261","OBJECT_ID":"2021-060N","EPOCH":"2025-08-19T04:46:58.514304","MEAN_MOTION":13.16594269,"ECCENTRICITY":0.000205,"INCLINATION":87.9013,"RA_OF_ASC_NODE":289.0018,"ARG_OF_PERICENTER":83.0325,"MEAN_ANOMALY":277.1039,"EPHEMERIS_TYPE":0,"CLASSIFICATION_TYPE":"U","NORAD_CAT_ID":48979,"ELEMENT_SET_NO":999,"REV_AT_EPOCH":20122,"BSTAR":-0.0006342,"MEAN_MOTION_DOT":-2.3e-6,"MEAN_MOTION_DDOT":0},{"OBJECT_NAME":"ONEWEB-0262","OBJECT_ID":"2021-060P","EPOCH":"2025-08-19T04:18:30.600576","MEAN_MOTION":13.16595102,"ECCENTRICITY":0.0001664,"INCLINATION":87.9022,"RA_OF_ASC_NODE":288.9685,"ARG_OF_PERICENTER":92.6494,"MEAN_ANOMALY":267.4827,"EPHEMERIS_TYPE":0,"CLASSIFICATION_TYPE":"U","NORAD_CAT_ID":48980,"ELEMENT_SET_NO":999,"REV_AT_EPOCH":20118,"BSTAR":-7.2049e-5,"MEAN_MOTION_DOT":-1.5e-7,"MEAN_MOTION_DDOT":0},{"OBJECT_NAME":"ONEWEB-0263","OBJECT_ID":"2021-060Q","EPOCH":"2025-08-18T21:46:21.317088","MEAN_MOTION":13.16594968,"ECCENTRICITY":0.0001801,"INCLINATION":87.9016,"RA_OF_ASC_NODE":289.0462,"ARG_OF_PERICENTER":82.5491,"MEAN_ANOMALY":277.5845,"EPHEMERIS_TYPE":0,"CLASSIFICATION_TYPE":"U","NORAD_CAT_ID":48981,"ELEMENT_SET_NO":999,"REV_AT_EPOCH":19981,"BSTAR":-3.0941e-5,"MEAN_MOTION_DOT":1.0e-8,"MEAN_MOTION_DDOT":0},{"OBJECT_NAME":"ONEWEB-0264","OBJECT_ID":"2021-060R","EPOCH":"2025-08-18T20:50:30.481440","MEAN_MOTION":13.16600544,"ECCENTRICITY":0.0002171,"INCLINATION":87.9016,"RA_OF_ASC_NODE":289.0588,"ARG_OF_PERICENTER":89.4119,"MEAN_ANOMALY":270.7261,"EPHEMERIS_TYPE":0,"CLASSIFICATION_TYPE":"U","NORAD_CAT_ID":48982,"ELEMENT_SET_NO":999,"REV_AT_EPOCH":19981,"BSTAR":-0.002355,"MEAN_MOTION_DOT":-8.87e-6,"MEAN_MOTION_DDOT":0},{"OBJECT_NAME":"ONEWEB-0266","OBJECT_ID":"2021-060T","EPOCH":"2025-08-18T21:21:16.547904","MEAN_MOTION":13.16594306,"ECCENTRICITY":0.0001852,"INCLINATION":87.9019,"RA_OF_ASC_NODE":289.0304,"ARG_OF_PERICENTER":100.0097,"MEAN_ANOMALY":260.1243,"EPHEMERIS_TYPE":0,"CLASSIFICATION_TYPE":"U","NORAD_CAT_ID":48984,"ELEMENT_SET_NO":999,"REV_AT_EPOCH":19980,"BSTAR":-0.00017349,"MEAN_MOTION_DOT":-5.3e-7,"MEAN_MOTION_DDOT":0},{"OBJECT_NAME":"ONEWEB-0267","OBJECT_ID":"2021-060U","EPOCH":"2025-08-19T04:54:58.340160","MEAN_MOTION":13.16594788,"ECCENTRICITY":0.0002004,"INCLINATION":87.9019,"RA_OF_ASC_NODE":288.9698,"ARG_OF_PERICENTER":88.1305,"MEAN_ANOMALY":272.0056,"EPHEMERIS_TYPE":0,"CLASSIFICATION_TYPE":"U","NORAD_CAT_ID":48985,"ELEMENT_SET_NO":999,"REV_AT_EPOCH":20114,"BSTAR":2.0359e-5,"MEAN_MOTION_DOT":2.1e-7,"MEAN_MOTION_DDOT":0},{"OBJECT_NAME":"ONEWEB-0268","OBJECT_ID":"2021-060V","EPOCH":"2025-08-19T04:09:22.078080","MEAN_MOTION":13.16593984,"ECCENTRICITY":0.000211,"INCLINATION":87.9023,"RA_OF_ASC_NODE":288.982,"ARG_OF_PERICENTER":94.4487,"MEAN_ANOMALY":265.6885,"EPHEMERIS_TYPE":0,"CLASSIFICATION_TYPE":"U","NORAD_CAT_ID":48986,"ELEMENT_SET_NO":999,"REV_AT_EPOCH":20140,"BSTAR":0.0001066,"MEAN_MOTION_DOT":5.4e-7,"MEAN_MOTION_DDOT":0},{"OBJECT_NAME":"ONEWEB-0269","OBJECT_ID":"2021-060W","EPOCH":"2025-08-18T14:55:56.680320","MEAN_MOTION":13.16592508,"ECCENTRICITY":0.000206,"INCLINATION":87.9018,"RA_OF_ASC_NODE":289.1239,"ARG_OF_PERICENTER":99.1262,"MEAN_ANOMALY":261.0102,"EPHEMERIS_TYPE":0,"CLASSIFICATION_TYPE":"U","NORAD_CAT_ID":48987,"ELEMENT_SET_NO":999,"REV_AT_EPOCH":19981,"BSTAR":0.00018283,"MEAN_MOTION_DOT":8.3e-7,"MEAN_MOTION_DDOT":0},{"OBJECT_NAME":"ONEWEB-0270","OBJECT_ID":"2021-060X","EPOCH":"2025-08-19T04:07:05.568672","MEAN_MOTION":13.16593558,"ECCENTRICITY":0.0001728,"INCLINATION":87.902,"RA_OF_ASC_NODE":288.9843,"ARG_OF_PERICENTER":83.2508,"MEAN_ANOMALY":276.8819,"EPHEMERIS_TYPE":0,"CLASSIFICATION_TYPE":"U","NORAD_CAT_ID":48988,"ELEMENT_SET_NO":999,"REV_AT_EPOCH":20123,"BSTAR":-5.6088e-5,"MEAN_MOTION_DOT":-9.0e-8,"MEAN_MOTION_DDOT":0},{"OBJECT_NAME":"ONEWEB-0271","OBJECT_ID":"2021-060Y","EPOCH":"2025-08-18T20:31:06.912768","MEAN_MOTION":13.16594581,"ECCENTRICITY":0.0001956,"INCLINATION":87.9021,"RA_OF_ASC_NODE":289.0313,"ARG_OF_PERICENTER":87.1965,"MEAN_ANOMALY":272.939,"EPHEMERIS_TYPE":0,"CLASSIFICATION_TYPE":"U","NORAD_CAT_ID":48989,"ELEMENT_SET_NO":999,"REV_AT_EPOCH":19988,"BSTAR":3.0866e-5,"MEAN_MOTION_DOT":2.5e-7,"MEAN_MOTION_DDOT":0},{"OBJECT_NAME":"ONEWEB-0272","OBJECT_ID":"2021-060Z","EPOCH":"2025-08-18T21:03:02.773152","MEAN_MOTION":13.16594948,"ECCENTRICITY":0.0002106,"INCLINATION":87.9015,"RA_OF_ASC_NODE":289.0561,"ARG_OF_PERICENTER":88.8519,"MEAN_ANOMALY":271.2853,"EPHEMERIS_TYPE":0,"CLASSIFICATION_TYPE":"U","NORAD_CAT_ID":48990,"ELEMENT_SET_NO":999,"REV_AT_EPOCH":20113,"BSTAR":-0.0001304,"MEAN_MOTION_DOT":-3.7e-7,"MEAN_MOTION_DDOT":0}]
